{
  "norad_id": 37818,
  "name": "TACSAT 4",
  "history": [
    {
      "epoch": "2026-03-27T04:05:07.752768",
      "apogee_km": 12025.19018326981,
      "perigee_km": 381.6240742450773,
      "latitude_deg": 17.925286660007156,
      "longitude_deg": 42.1419475201983,
      "semi_major_axis_km": 12581.544128757443,
      "eccentricity": 0.46272405,
      "inclination_deg": 62.8229,
      "raan_deg": 175.9069,
      "arg_perigee_deg": 281.2487,
      "mean_anomaly_deg": 31.8055,
      "mean_motion_rev_day": 6.15179485
    }
  ]
}